[{"OBJECT_NAME":"FLOCK 4Q-15","OBJECT_ID":"2023-174BR","EPOCH":"2026-03-02T18:47:22.200576","MEAN_MOTION":15.58379983,"ECCENTRICITY":0.00052988,"INCLINATION":97.3925,"RA_OF_ASC_NODE":152.3916,"ARG_OF_PERICENTER":170.7705,"MEAN_ANOMALY":189.3649,"EPHEMERIS_TYPE":0,"CLASSIFICATION_TYPE":"U","NORAD_CAT_ID":58319,"ELEMENT_SET_NO":999,"REV_AT_EPOCH":12939,"BSTAR":0.0016391802,"MEAN_MOTION_DOT":0.00126251,"MEAN_MOTION_DDOT":0},{"OBJECT_NAME":"FLOCK 4Q-2","OBJECT_ID":"2023-174BS","EPOCH":"2026-03-02T22:33:06.020064","MEAN_MOTION":15.44584906,"ECCENTRICITY":0.0007976,"INCLINATION":97.388,"RA_OF_ASC_NODE":148.2346,"ARG_OF_PERICENTER":159.7379,"MEAN_ANOMALY":200.4188,"EPHEMERIS_TYPE":0,"CLASSIFICATION_TYPE":"U","NORAD_CAT_ID":58320,"ELEMENT_SET_NO":999,"REV_AT_EPOCH":12917,"BSTAR":0.00061544298,"MEAN_MOTION_DOT":0.00028619,"MEAN_MOTION_DDOT":0},{"OBJECT_NAME":"FLOCK 4Q-9","OBJECT_ID":"2023-174BU","EPOCH":"2026-03-02T18:18:18.270144","MEAN_MOTION":15.44225036,"ECCENTRICITY":0.00080867,"INCLINATION":97.3917,"RA_OF_ASC_NODE":148.0983,"ARG_OF_PERICENTER":161.0519,"MEAN_ANOMALY":199.1032,"EPHEMERIS_TYPE":0,"CLASSIFICATION_TYPE":"U","NORAD_CAT_ID":58322,"ELEMENT_SET_NO":999,"REV_AT_EPOCH":12913,"BSTAR":0.0006204695,"MEAN_MOTION_DOT":0.00028504,"MEAN_MOTION_DDOT":0},{"OBJECT_NAME":"FLOCK 4Q-4","OBJECT_ID":"2023-174BZ","EPOCH":"2026-03-02T18:18:08.105184","MEAN_MOTION":15.43867657,"ECCENTRICITY":0.00074846,"INCLINATION":97.3874,"RA_OF_ASC_NODE":147.4791,"ARG_OF_PERICENTER":178.1069,"MEAN_ANOMALY":182.0209,"EPHEMERIS_TYPE":0,"CLASSIFICATION_TYPE":"U","NORAD_CAT_ID":58327,"ELEMENT_SET_NO":999,"REV_AT_EPOCH":12911,"BSTAR":0.00058400624,"MEAN_MOTION_DOT":0.00026491,"MEAN_MOTION_DDOT":0},{"OBJECT_NAME":"FLOCK 4Q-13","OBJECT_ID":"2023-174CA","EPOCH":"2026-03-02T17:51:35.239104","MEAN_MOTION":15.46481836,"ECCENTRICITY":0.00074952,"INCLINATION":97.4032,"RA_OF_ASC_NODE":149.8367,"ARG_OF_PERICENTER":173.1794,"MEAN_ANOMALY":186.9559,"EPHEMERIS_TYPE":0,"CLASSIFICATION_TYPE":"U","NORAD_CAT_ID":58328,"ELEMENT_SET_NO":999,"REV_AT_EPOCH":12919,"BSTAR":0.00062439329,"MEAN_MOTION_DOT":0.00030984,"MEAN_MOTION_DDOT":0},{"OBJECT_NAME":"FLOCK 4Q-21","OBJECT_ID":"2023-174CB","EPOCH":"2026-03-02T19:51:41.316192","MEAN_MOTION":15.56591718,"ECCENTRICITY":0.00057987,"INCLINATION":97.3941,"RA_OF_ASC_NODE":152.9037,"ARG_OF_PERICENTER":178.8557,"MEAN_ANOMALY":181.2713,"EPHEMERIS_TYPE":0,"CLASSIFICATION_TYPE":"U","NORAD_CAT_ID":58329,"ELEMENT_SET_NO":999,"REV_AT_EPOCH":12942,"BSTAR":0.00074619561,"MEAN_MOTION_DOT":0.0005324,"MEAN_MOTION_DDOT":0},{"OBJECT_NAME":"FLOCK 4BE-18","OBJECT_ID":"2024-149N","EPOCH":"2026-03-02T18:45:16.338240","MEAN_MOTION":15.3793627,"ECCENTRICITY":0.00029984,"INCLINATION":97.3791,"RA_OF_ASC_NODE":144.6731,"ARG_OF_PERICENTER":270.2606,"MEAN_ANOMALY":89.8296,"EPHEMERIS_TYPE":0,"CLASSIFICATION_TYPE":"U","NORAD_CAT_ID":60480,"ELEMENT_SET_NO":999,"REV_AT_EPOCH":8593,"BSTAR":0.00061601989,"MEAN_MOTION_DOT":0.00022941,"MEAN_MOTION_DDOT":0},{"OBJECT_NAME":"FLOCK 4BE-7","OBJECT_ID":"2024-149P","EPOCH":"2026-03-02T18:53:15.390816","MEAN_MOTION":15.35990256,"ECCENTRICITY":0.00019553,"INCLINATION":97.3822,"RA_OF_ASC_NODE":144.2841,"ARG_OF_PERICENTER":267.243,"MEAN_ANOMALY":92.859,"EPHEMERIS_TYPE":0,"CLASSIFICATION_TYPE":"U","NORAD_CAT_ID":60481,"ELEMENT_SET_NO":999,"REV_AT_EPOCH":8589,"BSTAR":0.00052523962,"MEAN_MOTION_DOT":0.00018347,"MEAN_MOTION_DDOT":0},{"OBJECT_NAME":"FLOCK 4BE-26","OBJECT_ID":"2024-149S","EPOCH":"2026-03-02T21:13:17.084928","MEAN_MOTION":15.427679,"ECCENTRICITY":0.00057301,"INCLINATION":97.3776,"RA_OF_ASC_NODE":144.6452,"ARG_OF_PERICENTER":260.09,"MEAN_ANOMALY":99.9701,"EPHEMERIS_TYPE":0,"CLASSIFICATION_TYPE":"U","NORAD_CAT_ID":60484,"ELEMENT_SET_NO":999,"REV_AT_EPOCH":8594,"BSTAR":0.0022148273,"MEAN_MOTION_DOT":0.00097914,"MEAN_MOTION_DDOT":0},{"OBJECT_NAME":"FLOCK 4BE-36","OBJECT_ID":"2024-149U","EPOCH":"2026-03-02T17:59:05.568864","MEAN_MOTION":15.3878781,"ECCENTRICITY":0.00027195,"INCLINATION":97.3801,"RA_OF_ASC_NODE":145.1771,"ARG_OF_PERICENTER":285.5509,"MEAN_ANOMALY":74.5436,"EPHEMERIS_TYPE":0,"CLASSIFICATION_TYPE":"U","NORAD_CAT_ID":60486,"ELEMENT_SET_NO":999,"REV_AT_EPOCH":8596,"BSTAR":0.0006181923,"MEAN_MOTION_DOT":0.0002367,"MEAN_MOTION_DDOT":0},{"OBJECT_NAME":"FLOCK 4BE-25","OBJECT_ID":"2024-149V","EPOCH":"2026-03-02T19:11:31.171776","MEAN_MOTION":15.35725738,"ECCENTRICITY":0.00011233,"INCLINATION":97.3857,"RA_OF_ASC_NODE":144.4455,"ARG_OF_PERICENTER":251.9821,"MEAN_ANOMALY":108.1301,"EPHEMERIS_TYPE":0,"CLASSIFICATION_TYPE":"U","NORAD_CAT_ID":60487,"ELEMENT_SET_NO":999,"REV_AT_EPOCH":8589,"BSTAR":0.0005302825,"MEAN_MOTION_DOT":0.00018367,"MEAN_MOTION_DDOT":0},{"OBJECT_NAME":"FLOCK 4BE-31","OBJECT_ID":"2024-149W","EPOCH":"2026-03-02T18:53:04.660800","MEAN_MOTION":15.39562808,"ECCENTRICITY":0.000162,"INCLINATION":97.3857,"RA_OF_ASC_NODE":145.824,"ARG_OF_PERICENTER":279.4063,"MEAN_ANOMALY":80.6999,"EPHEMERIS_TYPE":0,"CLASSIFICATION_TYPE":"U","NORAD_CAT_ID":60488,"ELEMENT_SET_NO":999,"REV_AT_EPOCH":8598,"BSTAR":0.0006880756,"MEAN_MOTION_DOT":0.00027041,"MEAN_MOTION_DDOT":0},{"OBJECT_NAME":"FLOCK 4BE-20","OBJECT_ID":"2024-149X","EPOCH":"2026-03-02T18:35:29.252832","MEAN_MOTION":15.35013054,"ECCENTRICITY":0.00023312,"INCLINATION":97.3764,"RA_OF_ASC_NODE":143.5656,"ARG_OF_PERICENTER":276.9815,"MEAN_ANOMALY":83.1163,"EPHEMERIS_TYPE":0,"CLASSIFICATION_TYPE":"U","NORAD_CAT_ID":60489,"ELEMENT_SET_NO":999,"REV_AT_EPOCH":8587,"BSTAR":0.00048649213,"MEAN_MOTION_DOT":0.00016462,"MEAN_MOTION_DDOT":0},{"OBJECT_NAME":"FLOCK 4BE-23","OBJECT_ID":"2024-149Y","EPOCH":"2026-03-02T17:45:12.398112","MEAN_MOTION":15.34652526,"ECCENTRICITY":0.00020461,"INCLINATION":97.3843,"RA_OF_ASC_NODE":143.849,"ARG_OF_PERICENTER":292.8598,"MEAN_ANOMALY":67.2429,"EPHEMERIS_TYPE":0,"CLASSIFICATION_TYPE":"U","NORAD_CAT_ID":60490,"ELEMENT_SET_NO":999,"REV_AT_EPOCH":8585,"BSTAR":0.00048708298,"MEAN_MOTION_DOT":0.00016294,"MEAN_MOTION_DDOT":0},{"OBJECT_NAME":"FLOCK 4BE-15","OBJECT_ID":"2024-149Z","EPOCH":"2026-03-02T18:09:08.443872","MEAN_MOTION":15.39088622,"ECCENTRICITY":0.00026774,"INCLINATION":97.3781,"RA_OF_ASC_NODE":144.8736,"ARG_OF_PERICENTER":339.4903,"MEAN_ANOMALY":20.6235,"EPHEMERIS_TYPE":0,"CLASSIFICATION_TYPE":"U","NORAD_CAT_ID":60491,"ELEMENT_SET_NO":999,"REV_AT_EPOCH":8595,"BSTAR":0.0017065848,"MEAN_MOTION_DOT":0.00066503,"MEAN_MOTION_DDOT":0},{"OBJECT_NAME":"FLOCK 4BE-17","OBJECT_ID":"2024-149AA","EPOCH":"2026-03-02T18:59:37.442112","MEAN_MOTION":15.36349265,"ECCENTRICITY":0.00019594,"INCLINATION":97.3838,"RA_OF_ASC_NODE":144.563,"ARG_OF_PERICENTER":267.2889,"MEAN_ANOMALY":92.8131,"EPHEMERIS_TYPE":0,"CLASSIFICATION_TYPE":"U","NORAD_CAT_ID":60492,"ELEMENT_SET_NO":999,"REV_AT_EPOCH":8590,"BSTAR":0.00055931376,"MEAN_MOTION_DOT":0.00019772,"MEAN_MOTION_DDOT":0}]
