FLOCK 4Q-15             
1 58319U 23174BR  26061.78289584  .00126251  00000+0  16392-2 0  9998
2 58319  97.3925 152.3916 0005298 170.7705 189.3649 15.58379983129393
FLOCK 4Q-2              
1 58320U 23174BS  26061.93965301  .00028619  00000+0  61544-3 0  9994
2 58320  97.3880 148.2346 0007976 159.7379 200.4188 15.44584906129172
FLOCK 4Q-9              
1 58322U 23174BU  26061.76271146  .00028504  00000+0  62047-3 0  9996
2 58322  97.3917 148.0983 0008086 161.0519 199.1032 15.44225036129139
FLOCK 4Q-4              
1 58327U 23174BZ  26061.76259381  .00026491  00000+0  58401-3 0  9990
2 58327  97.3874 147.4791 0007484 178.1069 182.0209 15.43867657129111
FLOCK 4Q-13             
1 58328U 23174CA  26061.74415786  .00030984  00000+0  62439-3 0  9990
2 58328  97.4032 149.8367 0007495 173.1794 186.9559 15.46481836129199
FLOCK 4Q-21             
1 58329U 23174CB  26061.82756153  .00053240  00000+0  74620-3 0  9991
2 58329  97.3941 152.9037 0005798 178.8557 181.2713 15.56591718129428
FLOCK 4BE-18            
1 60480U 24149N   26061.78143910  .00022941  00000+0  61602-3 0  9991
2 60480  97.3791 144.6731 0002998 270.2606  89.8296 15.37936270 85933
FLOCK 4BE-7             
1 60481U 24149P   26061.78698369  .00018347  00000+0  52524-3 0  9993
2 60481  97.3822 144.2841 0001955 267.2430  92.8590 15.35990256 85898
FLOCK 4BE-26            
1 60484U 24149S   26061.88422552  .00097914  00000+0  22148-2 0  9991
2 60484  97.3776 144.6452 0005730 260.0900  99.9701 15.42767900 85943
FLOCK 4BE-36            
1 60486U 24149U   26061.74937001  .00023670  00000+0  61819-3 0  9995
2 60486  97.3801 145.1771 0002719 285.5509  74.5436 15.38787810 85968
FLOCK 4BE-25            
1 60487U 24149V   26061.79966634  .00018367  00000+0  53028-3 0  9995
2 60487  97.3857 144.4455 0001123 251.9821 108.1301 15.35725738 85898
FLOCK 4BE-31            
1 60488U 24149W   26061.78685950  .00027041  00000+0  68808-3 0  9995
2 60488  97.3857 145.8240 0001620 279.4063  80.6999 15.39562808 85989
FLOCK 4BE-20            
1 60489U 24149X   26061.77464413  .00016462  00000+0  48649-3 0  9990
2 60489  97.3764 143.5656 0002331 276.9815  83.1163 15.35013054 85879
FLOCK 4BE-23            
1 60490U 24149Y   26061.73972683  .00016294  00000+0  48708-3 0  9990
2 60490  97.3843 143.8490 0002046 292.8598  67.2429 15.34652526 85854
FLOCK 4BE-15            
1 60491U 24149Z   26061.75634773  .00066503  00000+0  17066-2 0  9998
2 60491  97.3781 144.8736 0002677 339.4903  20.6235 15.39088622 85952
FLOCK 4BE-17            
1 60492U 24149AA  26061.79140558  .00019772  00000+0  55931-3 0  9996
2 60492  97.3838 144.5630 0001959 267.2889  92.8131 15.36349265 85900
